GLOBALSTAR M057         
1 25943U 99058A   25270.77459091 -.00000081  00000+0  10851-3 0  9999
2 25943  51.9994  57.0577 0002237 207.0527 153.0207 12.24827164179507
GLOBALSTAR M059         
1 25944U 99058B   25271.12044150 -.00000031  00000+0  67749-3 0  9999
2 25944  52.0015 288.7069 0000403 131.3281 252.2081 11.99988424586403
GLOBALSTAR M056         
1 25945U 99058C   25271.04230848 -.00000073  00000+0  17359-3 0  9990
2 25945  51.9958 288.2401 0001049  33.8908 352.2864 12.04779343175029
GLOBALSTAR M031         
1 25946U 99058D   25271.09370269 -.00000085  00000+0  52411-4 0  9990
2 25946  51.9952 174.2639 0002028  39.8739 106.9832 12.16039819177062
GLOBALSTAR M039         
1 25961U 99062A   25271.09895293 -.00000054  00000+0  27647-3 0  9999
2 25961  51.9858 315.2678 0002536 208.4451 151.6277 12.62332988193212
GLOBALSTAR M034         
1 25962U 99062B   25271.02723584 -.00000098  00000+0 -27308-3 0  9999
2 25962  51.9853 104.0606 0013338 233.7678 294.2572 11.79448133150523
GLOBALSTAR M029         
1 25963U 99062C   25271.16593387 -.00000050  00000+0  45432-3 0  9996
2 25963  51.9795 176.5289 0002564 337.8444 172.2822 11.99901378181485
GLOBALSTAR M061         
1 25964U 99062D   25271.24500501 -.00000058  00000+0  36190-3 0  9991
2 25964  51.9789 288.9016 0005961 157.6218 284.2604 11.76777143133313
